TISAT 1                 
1 36799U 10035E   26068.75703561  .00024554  00000+0  91005-3 0  9996
2 36799  98.0645   6.8512 0001343 159.3030 200.8262 15.27628633852505
STARLINK-36520          
1 67466U 26008X   26068.39816179  .00029090  00000+0  10621-2 0  9992
2 67466  42.9973 207.2097 0001317 273.7761  86.2940 15.27590215  9529
